LEMUR-1                 
1 40044U 14033AL  22332.51503515  .00000843  00000+0  12863-3 0  9997
2 40044  97.6567 152.2642 0057712 349.0061  10.9883 14.75239891454068
LEMUR-2-XIAOQING        
1 41871U 16062C   22332.34063484  .00043514  00000+0  83153-3 0  9999
2 41871  51.6326 270.5122 0005839 127.7373 232.4145 15.47646457335236
LEMUR-2-SOKOLSKY        
1 41872U 16062D   22332.58108509  .00046081  00000+0  88830-3 0  9993
2 41872  51.6765 279.9650 0003470  79.4356 280.7023 15.47380410335231
LEMUR-2-ANUBHAVTHAKUR   
1 41873U 16062E   22332.63249940  .00008194  00000+0  28610-3 0  9998
2 41873  51.6794 333.6923 0007443 132.5995 227.5615 15.30429096334454
LEMUR-2-WINGO           
1 41874U 16062F   22332.32902841  .00040019  00000+0  81825-3 0  9990
2 41874  51.6457 282.5477 0011755  93.1821 267.0511 15.45666993335087
LEMUR-2-JOBANPUTRA      
1 41991U 17008AV  22332.43201684  .00025640  00000+0  67190-3 0  9992
2 41991  97.2391  31.1224 0005895  23.1477 337.0033 15.38652709321338
LEMUR-2-SPIRE-MINIONS   
1 41992U 17008AW  22332.16185923  .00032300  00000+0  70290-3 0  9996
2 41992  97.2471  36.2719 0004147  10.9436 349.1902 15.44231566321599
LEMUR-2-SATCHMO         
1 41993U 17008AX  22333.13308800  .00018756  00000+0  52471-3 0  9996
2 41993  97.2390  32.0748 0005888  23.2104 336.9406 15.36688553321459
LEMUR-2-SMITA-SHARAD    
1 41994U 17008AY  22332.14963249  .00029420  00000+0  64325-3 0  9992
2 41994  97.2465  36.0097 0004134  14.0194 346.1168 15.44110708321587
LEMUR-2-RDEATON         
1 41995U 17008AZ  22333.12155363  .00014885  00000+0  42564-3 0  9992
2 41995  97.2439  32.2965 0006959  32.1381 328.0286 15.36046060322139
LEMUR-2-TACHIKOMA       
1 41996U 17008BA  22332.61335463  .00033689  00000+0  76651-3 0  9994
2 41996  97.2525  36.6683 0005570  26.8063 333.3472 15.42889539321527
LEMUR-2-NOGUECORREIG    
1 41997U 17008BB  22332.62953160  .00032608  00000+0  70562-3 0  9991
2 41997  97.2487  37.2813 0005226  21.3956 338.7510 15.44391984321678
LEMUR-2-MIA-GRACE       
1 41998U 17008BC  22333.13444315  .00016258  00000+0  46495-3 0  9997
2 41998  97.2409  31.8390 0006919  34.6454 325.5239 15.36023542321353
LEMUR-2-ANGELA          
1 42752U 17019B   22332.77907028  .00036458  00000+0  58743-3 0  9995
2 42752  51.6292 151.6270 0006013 263.0566  96.9739 15.52562620306609
LEMUR-2-JENNYBARNA      
1 42753U 17019C   22332.79189605  .00260620  00000+0  10279-2 0  9992
2 42753  51.6167 107.7731 0008898 293.1850  66.8216 15.85517023307147
LEMUR-2-ROBMOORE        
1 42754U 17019D   22333.00930002  .00031281  00000+0  54983-3 0  9993
2 42754  51.6300 153.1140 0004659 271.4675  88.5781 15.50201973306582
LEMUR-2-SPIROVISION     
1 42755U 17019E   22333.41533943  .00284981  00000+0  13238-2 0  9996
2 42755  51.6256 106.5066 0010577 267.6981 132.2024 15.81980419307137
LEMUR-2-SHAINAJOHL      
1 42771U 17036G   22332.54916448  .00018828  00000+0  53618-3 0  9993
2 42771  97.1817   9.6883 0012084  89.2842 270.9787 15.36073249302126
LEMUR-2-XUENITERENCE    
1 42772U 17036H   22333.10050035  .00022642  00000+0  58855-3 0  9995
2 42772  97.1703  10.5609 0011036  82.2091 278.0408 15.38880614302272
LEMUR-2-LUCYBRYCE       
1 42773U 17036J   22333.07049659  .00015356  00000+0  47477-3 0  9994
2 42773  97.1852  10.0262 0012138  89.4654 270.7980 15.33520885302142
LEMUR-2-KUNGFOO         
1 42774U 17036K   22333.10108726  .00016345  00000+0  45958-3 0  9991
2 42774  97.1810  10.7269 0011461  84.7879 275.4673 15.36509017302234
LEMUR-2-LYNSEY-SYMO     
1 42779U 17036Q   22333.11221180  .00020014  00000+0  49559-3 0  9996
2 42779  97.1833  15.8878 0009564  84.8450 275.3888 15.40405719302521
LEMUR-2-LISASAURUS      
1 42780U 17036R   22333.05551606  .00021646  00000+0  59269-3 0  9991
2 42780  97.1818  11.8912 0010150  91.9376 268.3031 15.37293112302272
LEMUR-2-SAM-AMELIA      
1 42781U 17036S   22333.08023355  .00008823  00000+0  28444-3 0  9993
2 42781  97.1853  12.1786 0011208  93.2930 266.9595 15.32332904302267
LEMUR-2-MCPEAKE         
1 42782U 17036T   22333.05113421  .00016194  00000+0  44867-3 0  9992
2 42782  97.1824  13.6664 0010088  87.2050 273.0349 15.36985691302399
LEMUR-2-GREENBERG       
1 42837U 17042N   22332.55398779  .00002296  00000+0  21711-3 0  9996
2 42837  97.4069 181.0753 0012591 160.0609 200.1107 14.94535042292771
LEMUR-2-ANDIS           
1 42838U 17042P   22333.01700048  .00002396  00000+0  22613-3 0  9998
2 42838  97.4054 181.4360 0012744 157.8345 202.3430 14.94575495292842
LEMUR-2-MONSON          
1 42839U 17042Q   22333.39607634  .00003081  00000+0  29115-3 0  9993
2 42839  97.4066 181.5306 0012607 157.3107 202.8674 14.94325336292871
LEMUR-2-FURIAUS         
1 42840U 17042R   22333.07771813  .00003536  00000+0  33646-3 0  9990
2 42840  97.4103 181.5804 0012827 159.4824 200.6915 14.93965270292826
LEMUR-2-PETERG          
1 42841U 17042S   22333.41265702  .00003735  00000+0  35217-3 0  9991
2 42841  97.4125 183.0927 0012534 153.7146 206.4714 14.94297491292941
LEMUR-2-DEMBITZ         
1 42842U 17042T   22332.82471690  .00002048  00000+0  19315-3 0  9998
2 42842  97.4097 182.4239 0012404 155.9344 204.2459 14.94746830292868
LEMUR-2-ZACHARY         
1 42845U 17042W   22332.54738430  .00003698  00000+0  33716-3 0  9991
2 42845  97.3984 181.2927 0012504 156.5337 203.6457 14.95623372292874
LEMUR-2-MCCAFFERTY      
1 43123U 18004N   22333.20859545  .00040002  00000+0  84990-3 0  9995
2 43123  97.3632  53.6505 0006224 112.1216 248.0694 15.44885658271914
LEMUR-2-PETERWEBSTER    
1 43124U 18004P   22332.78116395  .00029809  00000+0  65246-3 0  9992
2 43124  97.3631  52.7241 0006599 116.8049 243.3875 15.44063433271829
LEMUR-2-BROWNCOW        
1 43125U 18004Q   22333.19989071  .00041596  00000+0  80947-3 0  9990
2 43125  97.3700  55.4791 0005977 110.8171 249.3719 15.47447687272011
LEMUR-2-DAVEWILSON      
1 43126U 18004R   22332.95103196  .00040928  00000+0  77553-3 0  9997
2 43126  97.3675  55.0937 0005541 112.7435 247.4402 15.48223629271973
LEMUR-2-MARSHALL        
1 43165U 18010C   22332.31801837  .00027221  00000+0  80369-3 0  9994
2 43165  82.9122 270.0320 0026702 103.9816 256.4400 15.34464492269565
LEMUR-2-TALLHAMN-ATC    
1 43167U 18010E   22333.30510618  .00017164  00000+0  58008-3 0  9990
2 43167  82.9151 276.1063 0021648 122.8400 237.4930 15.30292640269289
LEMUR-2-JIN-LUEN        
1 43182U 18014C   22333.19557716  .00003486  00000+0  28119-3 0  9990
2 43182  97.6275 233.8876 0018855 109.4682 250.8581 15.00392504263582
LEMUR-2-URAMCHANSOL     
1 43183U 18014D   22332.66775933  .00004448  00000+0  35512-3 0  9999
2 43183  97.6309 233.6155 0019481  95.3529 264.9918 15.00629065263516
LEMUR-2-KADI            
1 43184U 18014E   22332.62150531  .00004498  00000+0  36542-3 0  9996
2 43184  97.6387 233.3673 0015708  95.9295 264.3720 15.00008855263499
LEMUR-2-THENICKMOLO     
1 43185U 18014F   22332.96706068  .00003343  00000+0  27081-3 0  9992
2 43185  97.6415 234.0283 0010666  99.1884 261.0547 15.00347934263557
LEMUR-2-VU              
1 43558U 18046E   22332.55002957  .00097318  00000+0  96780-3 0  9999
2 43558  51.6330  69.0825 0009002 303.2702  56.7430 15.64889493245051
LEMUR-2-ALEXANDER       
1 43559U 18046F   22333.23221355  .00209569  00000+0  14124-2 0  9995
2 43559  51.6361  60.1828 0007748 351.2833   8.8030 15.73912556245011
LEMUR-2-YUASA           
1 43560U 18046G   22333.24871699  .00172660  00000+0  13335-2 0  9994
2 43560  51.6374  64.0335 0008328 346.7982  13.2796 15.70813367245186
LEMUR-2-TOMHENDERSON    
1 43561U 18046H   22333.14079741  .00097884  00000+0  11536-2 0  9997
2 43561  51.6388  72.2747 0008575 297.0477  62.9641 15.60538988244621
LEMUR-2-ZUPANSKI        
1 43695U 18088F   22332.64592254  .00016842  00000+0  50795-3 0  9990
2 43695  85.0281 203.3995 0008655 245.1872 114.8476 15.34134111225023
LEMUR-2-CHANUSIAK       
1 43697U 18088H   22333.37802082  .00019849  00000+0  56017-3 0  9999
2 43697  85.0341 202.8355 0008225 205.1562 154.9288 15.36226282225277
LEMUR-2-ORZULAK         
1 43731U 18096N   22333.22759158  .00118365  00000+0  12677-2 0  9992
2 43731  97.3556  61.7966 0009250 182.6853 177.4357 15.63411580223789
LEMUR-2-KOBYSZCZE       
1 43732U 18096P   22333.19087535  .00113091  00000+0  12029-2 0  9994
2 43732  97.3566  62.3138 0009341 181.1902 178.9336 15.63604441223805
LEMUR-2-DULY            
1 43745U 18096AC  22333.22735096  .00083039  00000+0  10626-2 0  9993
2 43745  97.3551  61.5099 0010412 174.6804 185.4564 15.58872857223773
LEMUR-2-VLADIMIR        
1 43746U 18096AD  22332.79811616  .00171381  00000+0  12948-2 0  9995
2 43746  97.3522  62.9669 0007693 214.0974 145.9796 15.71894994223852
LEMUR-2-CHRISTINAHOLT   
1 43882U 18111G   22333.01681010  .00005389  00000+0  42657-3 0  9998
2 43882  97.6630 238.1864 0011881  77.4040 282.8512 15.00961864212431
LEMUR-2-TINYKEV         
1 43883U 18111H   22332.65360460  .00004379  00000+0  34318-3 0  9994
2 43883  97.6462 238.0332 0015552  98.8349 261.4637 15.01408267214394
LEMUR-2-REMY-COLTON     
1 43884U 18111J   22333.40307698  .00004407  00000+0  34658-3 0  9992
2 43884  97.6596 239.3534 0003518 118.4325 241.7254 15.01360445212538
LEMUR-2-GUSTAVO         
1 43885U 18111K   22332.80684522  .00004200  00000+0  33325-3 0  9991
2 43885  97.6583 238.3486 0017107  91.3128 269.0056 15.00937992212415
LEMUR-2-ZO              
1 43886U 18111L   22332.72341963  .00003493  00000+0  27752-3 0  9992
2 43886  97.6533 238.5860 0019002 125.0507 235.2503 15.00975185214411
LEMUR-2-NATALIEMURRAY   
1 43887U 18111M   22333.13865326  .00004768  00000+0  37582-3 0  9991
2 43887  97.6603 239.3202 0012231  68.4640 291.7887 15.01182000214491
LEMUR-2-SARAHBETTYBOO   
1 43888U 18111N   22333.22528938  .00005235  00000+0  41006-3 0  9993
2 43888  97.6857 239.7757 0012051 142.6116 217.5949 15.01375919214516
LEMUR-2-DAISY-HARPER    
1 43889U 18111P   22333.02110178  .00004606  00000+0  36133-3 0  9991
2 43889  97.6798 239.7513 0010456 144.3615 215.8309 15.01394391214483
